NORAD_CAT_ID,OBJECT_NAME,OBJECT_TYPE,EPOCH,MEAN_MOTION,ECCENTRICITY,INCLINATION,RA_OF_ASC_NODE,ARG_OF_PERICENTER,MEAN_ANOMALY,BSTAR,MEAN_MOTION_DOT,MEAN_MOTION_DDOT,TLE_LINE0,TLE_LINE1,TLE_LINE2,SEMIMAJOR_AXIS,PERIOD,APOGEE,PERIGEE,DECAYED
53018.0,STARLINK-4279,PAYLOAD,2023-06-03 10:13:44,15.08832251,9.69e-05,53.2172,299.6275,82.4329,277.6773,3.035e-05,1.95e-06,0.0,0 STARLINK-4279,1 53018U 22076AJ  23154.42621085  .00000195  00000-0  30350-4 0  9997,2 53018  53.2172 299.6275 0000969  82.4329 277.6773 15.08832251 50932,6917.904,95.438,540.439,539.099,0.0
53018.0,STARLINK-4279,PAYLOAD,2023-06-03 13:24:30,15.08836161,0.0001038,53.2177,299.0317,85.4701,274.641,3.7794e-05,3.14e-06,0.0,0 STARLINK-4279,1 53018U 22076AJ  23154.55868870  .00000314  00000-0  37794-4 0  9998,2 53018  53.2177 299.0317 0001038  85.4701 274.6410 15.08836161 50482,6917.892,95.438,540.475,539.039,0.0
53018.0,STARLINK-4279,PAYLOAD,2023-06-03 16:35:16,15.08843513,9.44e-05,53.2171,298.4381,79.6613,280.4485,1.3389e-05,-7.5e-07,0.0,0 STARLINK-4279,1 53018U 22076AJ  23154.69116534 -.00000075  00000-0  13389-4 0  9995,2 53018  53.2171 298.4381 0000944  79.6613 280.4485 15.08843513 50972,6917.87,95.437,540.388,539.082,0.0
53018.0,STARLINK-4279,PAYLOAD,2023-06-04 10:04:31,15.08827464,0.000107,53.2173,295.1668,82.3281,277.7833,0.0001747,2.493e-05,0.0,0 STARLINK-4279,1 53018U 22076AJ  23155.41981135  .00002493  00000-0  17470-3 0  9992,2 53018  53.2173 295.1668 0001070  82.3281 277.7833 15.08827464 51085,6917.919,95.438,540.524,539.043,0.0
53018.0,STARLINK-4279,PAYLOAD,2023-06-04 13:15:17,15.0883696,9.8e-05,53.2175,294.5716,88.6507,271.4598,2.8669e-05,1.69e-06,0.0,0 STARLINK-4279,1 53018U 22076AJ  23155.55229129  .00000169  00000-0  28669-4 0  9996,2 53018  53.2175 294.5716 0000980  88.6507 271.4598 15.08836960 50633,6917.89,95.438,540.433,539.077,0.0
53018.0,STARLINK-4279,PAYLOAD,2023-06-04 16:26:03,15.08841026,9.8e-05,53.2174,293.9776,85.6124,274.498,8.5103e-05,1.067e-05,0.0,0 STARLINK-4279,1 53018U 22076AJ  23155.68476739  .00001067  00000-0  85103-4 0  9995,2 53018  53.2174 293.9776 0000980  85.6124 274.4980 15.08841026 51125,6917.877,95.437,540.42,539.064,0.0
53018.0,STARLINK-4279,PAYLOAD,2023-06-05 13:06:04,15.08849131,0.0001013,53.2173,290.1122,95.1534,264.9574,1.1932e-05,-9.8e-07,0.0,0 STARLINK-4279,1 53018U 22076AJ  23156.54588502 -.00000098  00000-0  11932-4 0  9996,2 53018  53.2173 290.1122 0001013  95.1534 264.9574 15.08849131 50786,6917.852,95.437,540.418,539.017,0.0
53018.0,STARLINK-4279,PAYLOAD,2023-06-05 17:52:13,15.08852664,0.0001053,53.2173,289.2203,94.9314,265.1798,0.00010743,1.423e-05,0.0,0 STARLINK-4279,1 53018U 22076AJ  23156.74459971  .00001423  00000-0  10743-3 0  9995,2 53018  53.2173 289.2203 0001053  94.9314 265.1798 15.08852664 51284,6917.842,95.437,540.435,538.978,0.0
53018.0,STARLINK-4279,PAYLOAD,2023-06-06 03:24:33,15.08839581,0.000106,53.2175,287.4361,98.9159,261.1954,6.724e-05,7.82e-06,0.0,0 STARLINK-4279,1 53018U 22076AJ  23157.14204873  .00000782  00000-0  67240-4 0  9991,2 53018  53.2175 287.4361 0001060  98.9159 261.1954 15.08839581 51340,6917.882,95.438,540.48,539.013,0.0
53018.0,STARLINK-4279,PAYLOAD,2023-06-06 11:21:29,15.0883292,0.0001056,53.2173,285.949,87.7344,272.3769,2.5754e-05,1.22e-06,0.0,0 STARLINK-4279,1 53018U 22076AJ  23157.47325515  .00000122  00000-0  25754-4 0  9996,2 53018  53.2173 285.9490 0001056  87.7344 272.3769 15.08832920 50922,6917.902,95.438,540.498,539.036,0.0
53018.0,STARLINK-4279,PAYLOAD,2023-06-06 17:43:01,15.08842597,0.0001039,53.217,284.7592,88.7503,271.3609,7.6912e-05,9.37e-06,0.0,0 STARLINK-4279,1 53018U 22076AJ  23157.73820757  .00000937  00000-0  76912-4 0  9999,2 53018  53.2170 284.7592 0001039  88.7503 271.3609 15.08842597 50965,6917.872,95.437,540.456,539.019,0.0
53018.0,STARLINK-4279,PAYLOAD,2023-06-07 08:01:30,15.08834959,0.0001041,53.2173,282.0832,85.2652,274.8459,-7.7704e-07,-3e-06,0.0,0 STARLINK-4279,1 53018U 22076AJ  23158.33437547 -.00000300  00000-0 -77704-6 0  9995,2 53018  53.2173 282.0832 0001041  85.2652 274.8459 15.08834959 51523,6917.896,95.438,540.481,539.041,0.0
53018.0,STARLINK-4279,PAYLOAD,2023-06-07 11:12:16,15.08835005,9.52e-05,53.2171,281.4897,83.7858,276.3243,-2.1322e-07,-2.91e-06,0.0,0 STARLINK-4279,1 53018U 22076AJ  23158.46685547 -.00000291  00000-0 -21322-6 0  9998,2 53018  53.2171 281.4897 0000952  83.7858 276.3243 15.08835005 51077,6917.896,95.438,540.419,539.102,0.0
53018.0,STARLINK-4279,PAYLOAD,2023-06-07 19:09:11,15.08849459,9.12e-05,53.2174,280.0014,94.0081,266.1015,4.3116e-05,3.99e-06,0.0,0 STARLINK-4279,1 53018U 22076AJ  23158.79804422  .00000399  00000-0  43116-4 0  9999,2 53018  53.2174 280.0014 0000912  94.0081 266.1015 15.08849459 51123,6917.851,95.437,540.347,539.086,0.0
53018.0,STARLINK-4279,PAYLOAD,2023-06-08 01:30:43,15.08847696,6.9e-05,53.2179,278.8152,73.0514,287.0554,1.3868e-05,-6.7e-07,0.0,0 STARLINK-4279,1 53018U 22076AJ  23159.06300548 -.00000067  00000-0  13868-4 0  9994,2 53018  53.2179 278.8152 0000690  73.0514 287.0554 15.08847696 51634,6917.857,95.437,540.199,539.245,0.0
53018.0,STARLINK-4279,PAYLOAD,2023-06-08 12:38:26,15.08837892,8.75e-05,53.2177,276.7316,79.6441,280.4649,0.00011456,1.536e-05,0.0,0 STARLINK-4279,1 53018U 22076AJ  23159.52669118  .00001536  00000-0  11456-3 0  9997,2 53018  53.2177 276.7316 0000875  79.6441 280.4649 15.08837892 51232,6917.887,95.438,540.357,539.147,0.0
53018.0,STARLINK-4279,PAYLOAD,2023-06-08 15:49:11,15.08847013,9.37e-05,53.2173,276.1356,102.4036,257.7061,0.00016624,2.359e-05,0.0,0 STARLINK-4279,1 53018U 22076AJ  23159.65916408  .00002359  00000-0  16624-3 0  9994,2 53018  53.2173 276.1356 0000937 102.4036 257.7061 15.08847013 51725,6917.859,95.437,540.372,539.076,0.0
53018.0,STARLINK-4279,PAYLOAD,2023-06-09 14:04:36,15.08838703,4.16e-05,53.2184,271.9757,54.2541,305.849,1.2409e-05,-9e-07,0.0,0 STARLINK-4279,1 53018U 22076AJ  23160.58653280 -.00000090  00000-0  12409-4 0  9993,2 53018  53.2184 271.9757 0000416  54.2541 305.8490 15.08838703 51392,6917.884,95.438,540.037,539.462,0.0
53018.0,STARLINK-4279,PAYLOAD,2023-06-10 13:55:23,15.08840411,8.43e-05,53.2175,267.5126,98.6503,261.4584,7.351e-05,8.82e-06,0.0,0 STARLINK-4279,1 53018U 22076AJ  23161.58013073  .00000882  00000-0  73510-4 0  9992,2 53018  53.2175 267.5126 0000843  98.6503 261.4584 15.08840411 51544,6917.879,95.438,540.327,539.161,0.0
53018.0,STARLINK-4279,PAYLOAD,2023-06-10 23:27:42,15.08842009,9.6e-05,53.2172,265.7276,91.5235,268.5867,-1.7703e-05,-5.69e-06,0.0,0 STARLINK-4279,1 53018U 22076AJ  23161.97757234 -.00000569  00000-0 -17703-4 0  9995,2 53018  53.2172 265.7276 0000960  91.5235 268.5867 15.08842009 52077,6917.874,95.437,540.403,539.075,0.0
53018.0,STARLINK-4279,PAYLOAD,2023-06-11 07:24:38,15.08834885,0.0001094,53.2185,264.244,92.5349,267.5768,-1.6904e-05,-5.57e-06,0.0,0 STARLINK-4279,1 53018U 22076AJ  23162.30878022 -.00000557  00000-0 -16904-4 0  9991,2 53018  53.2185 264.2440 0001094  92.5349 267.5768 15.08834885 52122,6917.896,95.438,540.518,539.004,0.0
53018.0,STARLINK-4279,PAYLOAD,2023-06-11 13:46:11,15.0883732,0.0001124,53.2187,263.0558,93.2041,266.9079,6.7059e-06,-1.81e-06,0.0,0 STARLINK-4279,1 53018U 22076AJ  23162.57373872 -.00000181  00000-0  67059-5 0  9993,2 53018  53.2187 263.0558 0001124  93.2041 266.9079 15.08837320 51698,6917.889,95.438,540.531,538.976,0.0
53018.0,STARLINK-4279,PAYLOAD,2023-06-11 15:21:34,15.08837603,0.0001142,53.2189,262.7582,94.0511,266.0611,1.7593e-05,-8e-08,0.0,0 STARLINK-4279,1 53018U 22076AJ  23162.63997833 -.00000008  00000-0  17593-4 0  9994,2 53018  53.2189 262.7582 0001142  94.0511 266.0611 15.08837603 51703,6917.888,95.438,540.543,538.963,0.0
53018.0,STARLINK-4279,PAYLOAD,2023-06-12 13:36:57,15.08846726,0.0001131,53.2188,258.5953,97.3826,262.7295,0.00011557,1.552e-05,0.0,0 STARLINK-4279,1 53018U 22076AJ  23163.56733124  .00001552  00000-0  11557-3 0  9995,2 53018  53.2188 258.5953 0001131  97.3826 262.7295 15.08846726 51842,6917.86,95.437,540.507,538.942,0.0
53018.0,STARLINK-4279,PAYLOAD,2023-06-12 23:09:16,15.08840599,0.0001081,53.2182,256.8113,98.357,261.7545,4.2742e-05,3.93e-06,0.0,0 STARLINK-4279,1 53018U 22076AJ  23163.96477710  .00000393  00000-0  42742-4 0  9998,2 53018  53.2182 256.8113 0001081  98.3570 261.7545 15.08840599 52374,6917.879,95.438,540.491,538.996,0.0
53018.0,STARLINK-4279,PAYLOAD,2023-06-13 16:38:31,15.08835396,0.0001044,53.2171,253.537,85.268,274.8431,6.437e-05,7.37e-06,0.0,0 STARLINK-4279,1 53018U 22076AJ  23164.69342176  .00000737  00000-0  64370-4 0  9999,2 53018  53.2171 253.5370 0001044  85.2680 274.8431 15.08835396 52487,6917.894,95.438,540.482,539.037,0.0
53018.0,STARLINK-4279,PAYLOAD,2023-06-14 05:21:36,15.08840408,0.0001087,53.2175,251.1568,80.2186,279.8928,3.7832e-05,3.14e-06,0.0,0 STARLINK-4279,1 53018U 22076AJ  23165.22334033  .00000314  00000-0  37832-4 0  9996,2 53018  53.2175 251.1568 0001087  80.2186 279.8928 15.08840408 52090,6917.879,95.438,540.496,538.992,0.0
53018.0,STARLINK-4279,PAYLOAD,2023-06-14 22:50:50,15.08848149,0.0001031,53.217,247.886,82.9662,277.1447,6.3377e-06,-1.87e-06,0.0,0 STARLINK-4279,1 53018U 22076AJ  23165.95197436 -.00000187  00000-0  63377-5 0  9993,2 53018  53.2170 247.8860 0001031  82.9662 277.1447 15.08848149 52670,6917.855,95.437,540.434,539.007,0.0
53018.0,STARLINK-4279,PAYLOAD,2023-06-15 09:58:33,15.08833114,0.0001106,53.2157,245.8048,89.1567,270.9552,6.3188e-05,7.18e-06,0.0,0 STARLINK-4279,1 53018U 22076AJ  23166.41566413  .00000718  00000-0  63188-4 0  9998,2 53018  53.2157 245.8048 0001106  89.1567 270.9552 15.08833114 52749,6917.901,95.438,540.532,539.001,0.0
53018.0,STARLINK-4279,PAYLOAD,2023-06-15 11:33:56,15.088357,9.96e-05,53.2159,245.5077,97.6388,262.4718,1.8033e-05,-1e-08,0.0,0 STARLINK-4279,1 53018U 22076AJ  23166.48190385 -.00000001  00000-0  18033-4 0  9991,2 53018  53.2159 245.5077 0000996  97.6388 262.4718 15.08835700 52283,6917.894,95.438,540.448,539.07,0.0
